{
  "type": "FeatureCollection",
  "name": "iAccess_Rechenzentren_Deutschland",
  "crs": {
    "type": "name",
    "properties": {
      "name": "urn:ogc:def:crs:OGC:1.3:CRS84"
    }
  },
  "features": [
    {
      "type": "Feature",
      "geometry": {
        "type": "Point",
        "coordinates": [
          9.18,
          48.7784
        ]
      },
      "properties": {
        "name": "AtlasEdge NB8 Stuttgart",
        "city": "Stuttgart",
        "type": "Colocation",
        "note": "Neue Brücke 8, Stuttgart",
        "latitude": 48.7784,
        "longitude": 9.18
      }
    },
    {
      "type": "Feature",
      "geometry": {
        "type": "Point",
        "coordinates": [
          9.1116,
          48.7296
        ]
      },
      "properties": {
        "name": "AtlasEdge / Kyndryl Stuttgart-Vaihingen",
        "city": "Stuttgart-Vaihingen",
        "type": "Colocation",
        "note": "Schockenriedstraße / Gropiusplatz, Vaihingen",
        "latitude": 48.7296,
        "longitude": 9.1116
      }
    },
    {
      "type": "Feature",
      "geometry": {
        "type": "Point",
        "coordinates": [
          9.107,
          48.7218
        ]
      },
      "properties": {
        "name": "nLighten Stuttgart STR1",
        "city": "Stuttgart",
        "type": "Edge",
        "note": "Breitwiesenstraße, Stuttgart",
        "latitude": 48.7218,
        "longitude": 9.107
      }
    },
    {
      "type": "Feature",
      "geometry": {
        "type": "Point",
        "coordinates": [
          9.1457,
          48.7144
        ]
      },
      "properties": {
        "name": "Stuttgart Zettachring Cluster",
        "city": "Stuttgart",
        "type": "Colocation",
        "note": "Zettachring, Stuttgart",
        "latitude": 48.7144,
        "longitude": 9.1457
      }
    },
    {
      "type": "Feature",
      "geometry": {
        "type": "Point",
        "coordinates": [
          9.0112,
          48.6841
        ]
      },
      "properties": {
        "name": "AtlasEdge STR001 Böblingen",
        "city": "Böblingen",
        "type": "Colocation",
        "note": "Schickardstraße, Böblingen",
        "latitude": 48.6841,
        "longitude": 9.0112
      }
    },
    {
      "type": "Feature",
      "geometry": {
        "type": "Point",
        "coordinates": [
          8.4721,
          49.0057
        ]
      },
      "properties": {
        "name": "Telemaxx IPC 3/4",
        "city": "Karlsruhe-Durlach",
        "type": "Colocation",
        "note": "Durlach, Karlsruhe",
        "latitude": 49.0057,
        "longitude": 8.4721
      }
    },
    {
      "type": "Feature",
      "geometry": {
        "type": "Point",
        "coordinates": [
          8.3831,
          49.0512
        ]
      },
      "properties": {
        "name": "ILK Albert-Nestler Data Center",
        "city": "Karlsruhe-Neureut",
        "type": "Colocation",
        "note": "Neureut, Karlsruhe",
        "latitude": 49.0512,
        "longitude": 8.3831
      }
    },
    {
      "type": "Feature",
      "geometry": {
        "type": "Point",
        "coordinates": [
          8.4116,
          49.0094
        ]
      },
      "properties": {
        "name": "KIT Scientific Computing Center",
        "city": "Karlsruhe",
        "type": "Forschung",
        "note": "KIT Campus Süd",
        "latitude": 49.0094,
        "longitude": 8.4116
      }
    },
    {
      "type": "Feature",
      "geometry": {
        "type": "Point",
        "coordinates": [
          7.8166,
          48.5725
        ]
      },
      "properties": {
        "name": "EXA Edge DC Kehl",
        "city": "Kehl",
        "type": "Edge",
        "note": "Hafenstraße, Kehl",
        "latitude": 48.5725,
        "longitude": 7.8166
      }
    },
    {
      "type": "Feature",
      "geometry": {
        "type": "Point",
        "coordinates": [
          9.2038,
          48.5069
        ]
      },
      "properties": {
        "name": "Reutlingen Data Centers",
        "city": "Reutlingen",
        "type": "Edge",
        "note": "Nepustil / Pronexon, Reutlingen",
        "latitude": 48.5069,
        "longitude": 9.2038
      }
    },
    {
      "type": "Feature",
      "geometry": {
        "type": "Point",
        "coordinates": [
          9.1732,
          47.6779
        ]
      },
      "properties": {
        "name": "SeeConnect Rechenzentrum Konstanz",
        "city": "Konstanz",
        "type": "Edge",
        "note": "Max-Stromeyer-Straße, Konstanz",
        "latitude": 47.6779,
        "longitude": 9.1732
      }
    },
    {
      "type": "Feature",
      "geometry": {
        "type": "Point",
        "coordinates": [
          8.477,
          49.4634
        ]
      },
      "properties": {
        "name": "MHG01 Mannheim",
        "city": "Mannheim",
        "type": "Enterprise",
        "note": "Hans-Thoma-Straße, Mannheim",
        "latitude": 49.4634,
        "longitude": 8.477
      }
    },
    {
      "type": "Feature",
      "geometry": {
        "type": "Point",
        "coordinates": [
          9.3212,
          49.1467
        ]
      },
      "properties": {
        "name": "STACKIT Ellhofen DC08",
        "city": "Ellhofen",
        "type": "Enterprise",
        "note": "Schwarz Gruppe / STACKIT",
        "latitude": 49.1467,
        "longitude": 9.3212
      }
    },
    {
      "type": "Feature",
      "geometry": {
        "type": "Point",
        "coordinates": [
          9.067,
          48.5289
        ]
      },
      "properties": {
        "name": "Nepustil Tübingen",
        "city": "Tübingen",
        "type": "Edge",
        "note": "Brückenstraße, Tübingen",
        "latitude": 48.5289,
        "longitude": 9.067
      }
    },
    {
      "type": "Feature",
      "geometry": {
        "type": "Point",
        "coordinates": [
          9.9876,
          48.4011
        ]
      },
      "properties": {
        "name": "SWU TeleNet Ulm",
        "city": "Ulm",
        "type": "Edge",
        "note": "Stadtwerk-Rechenzentrum Ulm",
        "latitude": 48.4011,
        "longitude": 9.9876
      }
    },
    {
      "type": "Feature",
      "geometry": {
        "type": "Point",
        "coordinates": [
          8.6849,
          49.4145
        ]
      },
      "properties": {
        "name": "Nextspace Heidelberg",
        "city": "Heidelberg",
        "type": "Colocation",
        "note": "George-Boole-Weg, Heidelberg",
        "latitude": 49.4145,
        "longitude": 8.6849
      }
    },
    {
      "type": "Feature",
      "geometry": {
        "type": "Point",
        "coordinates": [
          8.6413,
          49.293
        ]
      },
      "properties": {
        "name": "SAP WDF51",
        "city": "Walldorf",
        "type": "Enterprise",
        "note": "Hasso-Plattner-Ring, Walldorf",
        "latitude": 49.293,
        "longitude": 8.6413
      }
    },
    {
      "type": "Feature",
      "geometry": {
        "type": "Point",
        "coordinates": [
          8.6821,
          50.1109
        ]
      },
      "properties": {
        "name": "Frankfurt Data Center Cluster",
        "city": "Frankfurt am Main",
        "type": "Colocation",
        "note": "größter deutscher Colocation-Markt",
        "latitude": 50.1109,
        "longitude": 8.6821
      }
    },
    {
      "type": "Feature",
      "geometry": {
        "type": "Point",
        "coordinates": [
          8.3362,
          49.8706
        ]
      },
      "properties": {
        "name": "NTT Frankfurt 6 / Nierstein",
        "city": "Nierstein",
        "type": "Hyperscale",
        "note": "geplanter 482-MW-Campus, heise.de",
        "latitude": 49.8706,
        "longitude": 8.3362
      }
    },
    {
      "type": "Feature",
      "geometry": {
        "type": "Point",
        "coordinates": [
          6.6393,
          50.9543
        ]
      },
      "properties": {
        "name": "Microsoft Azure Rheinisches Revier",
        "city": "Bergheim",
        "type": "Hyperscale",
        "note": "geplanter 520-MW-Cluster, heise.de",
        "latitude": 50.9543,
        "longitude": 6.6393
      }
    },
    {
      "type": "Feature",
      "geometry": {
        "type": "Point",
        "coordinates": [
          13.9667,
          51.8667
        ]
      },
      "properties": {
        "name": "Schwarz Digits Lübbenau",
        "city": "Lübbenau/Spreewald",
        "type": "Hyperscale",
        "note": "geplantes 200-MW-KI-Rechenzentrum, heise.de",
        "latitude": 51.8667,
        "longitude": 13.9667
      }
    },
    {
      "type": "Feature",
      "geometry": {
        "type": "Point",
        "coordinates": [
          11.5981,
          48.1516
        ]
      },
      "properties": {
        "name": "Telekom/T-Systems Tucherpark",
        "city": "München",
        "type": "Forschung",
        "note": "KI-Rechenzentrum München, heise.de",
        "latitude": 48.1516,
        "longitude": 11.5981
      }
    }
  ]
}